{
  "type": "FeatureCollection",
  "features": [
    {
      "type": "Feature",
      "properties": {
        "norad_id": 41581,
        "name": "INTELSAT 31 (IS-31)",
        "group": "intelsat",
        "lat": -0.010531386830713666,
        "lon": -89.1928428714178,
        "alt_km": 35781.445785889955,
        "timestamp": "2025-12-02T19:35:50.229648+00:00",
        "meta_object_name": "INTELSAT 31 (IS-31)",
        "meta_object_id": "2016-035A",
        "meta_epoch": "2025-12-02T09:32:38.891040",
        "meta_mean_motion": 1.00269687,
        "meta_eccentricity": 0.0001905,
        "meta_inclination": 0.0144,
        "meta_ra_of_asc_node": 272.373,
        "meta_arg_of_pericenter": 308.7593,
        "meta_mean_anomaly": 258.4788,
        "meta_ephemeris_type": 0,
        "meta_classification_type": "U",
        "meta_norad_cat_id": 41581,
        "meta_element_set_no": 999,
        "meta_rev_at_epoch": 3471,
        "meta_bstar": 0,
        "meta_mean_motion_dot": -1.3e-06,
        "meta_mean_motion_ddot": 0,
        "tle_line1": "1 41581U 16035A   25336.39767235 -.00000130  00000+0  00000+0 0  9998",
        "tle_line2": "2 41581   0.0144 272.3730 0001905 308.7593 258.4788  1.00269687 34710"
      },
      "geometry": {
        "type": "Point",
        "coordinates": [
          -89.1928428714178,
          -0.010531386830713666
        ]
      }
    },
    {
      "type": "Feature",
      "properties": {
        "norad_id": 41747,
        "name": "INTELSAT 36 (IS-36)",
        "group": "intelsat",
        "lat": 0.030973818533142843,
        "lon": 74.361202244941,
        "alt_km": 35789.15259844897,
        "timestamp": "2025-12-02T19:35:50.229659+00:00",
        "meta_object_name": "INTELSAT 36 (IS-36)",
        "meta_object_id": "2016-053A",
        "meta_epoch": "2025-12-02T02:07:30.066816",
        "meta_mean_motion": 1.00267364,
        "meta_eccentricity": 0.0001138,
        "meta_inclination": 0.0112,
        "meta_ra_of_asc_node": 345.1762,
        "meta_arg_of_pericenter": 336.3829,
        "meta_mean_anomaly": 210.0274,
        "meta_ephemeris_type": 0,
        "meta_classification_type": "U",
        "meta_norad_cat_id": 41747,
        "meta_element_set_no": 999,
        "meta_rev_at_epoch": 3397,
        "meta_bstar": 0,
        "meta_mean_motion_dot": -3e-08,
        "meta_mean_motion_ddot": 0,
        "tle_line1": "1 41747U 16053A   25336.08854244 -.00000003  00000+0  00000+0 0  9994",
        "tle_line2": "2 41747   0.0112 345.1762 0001138 336.3829 210.0274  1.00267364 33971"
      },
      "geometry": {
        "type": "Point",
        "coordinates": [
          74.361202244941,
          0.030973818533142843
        ]
      }
    },
    {
      "type": "Feature",
      "properties": {
        "norad_id": 41945,
        "name": "INTELSAT 32E (IS-32E)",
        "group": "intelsat",
        "lat": -0.009284740547441203,
        "lon": -37.3199668813633,
        "alt_km": 35786.264690622236,
        "timestamp": "2025-12-02T19:35:50.229671+00:00",
        "meta_object_name": "INTELSAT 32E (IS-32E)",
        "meta_object_id": "2017-007B",
        "meta_epoch": "2025-12-02T08:26:33.227808",
        "meta_mean_motion": 1.00270094,
        "meta_eccentricity": 1.01e-05,
        "meta_inclination": 0.0231,
        "meta_ra_of_asc_node": 56.1777,
        "meta_arg_of_pericenter": 302.4246,
        "meta_mean_anomaly": 156.3298,
        "meta_ephemeris_type": 0,
        "meta_classification_type": "U",
        "meta_norad_cat_id": 41945,
        "meta_element_set_no": 999,
        "meta_rev_at_epoch": 3225,
        "meta_bstar": 0,
        "meta_mean_motion_dot": -2.48e-06,
        "meta_mean_motion_ddot": 0,
        "tle_line1": "1 41945U 17007B   25336.35177347 -.00000248  00000+0  00000+0 0  9997",
        "tle_line2": "2 41945   0.0231  56.1777 0000101 302.4246 156.3298  1.00270094 32256"
      },
      "geometry": {
        "type": "Point",
        "coordinates": [
          -37.3199668813633,
          -0.009284740547441203
        ]
      }
    },
    {
      "type": "Feature",
      "properties": {
        "norad_id": 42818,
        "name": "INTELSAT 35E (IS-35E)",
        "group": "intelsat",
        "lat": 0.012021269469115189,
        "lon": -28.60318941871198,
        "alt_km": 35784.349151719754,
        "timestamp": "2025-12-02T19:35:50.229683+00:00",
        "meta_object_name": "INTELSAT 35E (IS-35E)",
        "meta_object_id": "2017-041A",
        "meta_epoch": "2025-12-02T08:29:02.990112",
        "meta_mean_motion": 1.00271375,
        "meta_eccentricity": 0.0002292,
        "meta_inclination": 0.0169,
        "meta_ra_of_asc_node": 315.4787,
        "meta_arg_of_pericenter": 297.1604,
        "meta_mean_anomaly": 271.6069,
        "meta_ephemeris_type": 0,
        "meta_classification_type": "U",
        "meta_norad_cat_id": 42818,
        "meta_element_set_no": 999,
        "meta_rev_at_epoch": 3084,
        "meta_bstar": 0,
        "meta_mean_motion_dot": -2.17e-06,
        "meta_mean_motion_ddot": 0,
        "tle_line1": "1 42818U 17041A   25336.35350683 -.00000217  00000+0  00000+0 0  9997",
        "tle_line2": "2 42818   0.0169 315.4787 0002292 297.1604 271.6069  1.00271375 30842"
      },
      "geometry": {
        "type": "Point",
        "coordinates": [
          -28.60318941871198,
          0.012021269469115189
        ]
      }
    },
    {
      "type": "Feature",
      "properties": {
        "norad_id": 42950,
        "name": "INTELSAT 37E (IS-37E)",
        "group": "intelsat",
        "lat": 0.025027996395419652,
        "lon": -12.10599978829552,
        "alt_km": 35789.50024410795,
        "timestamp": "2025-12-02T19:35:50.229694+00:00",
        "meta_object_name": "INTELSAT 37E (IS-37E)",
        "meta_object_id": "2017-059A",
        "meta_epoch": "2025-12-02T06:51:04.874112",
        "meta_mean_motion": 1.00270981,
        "meta_eccentricity": 0.0003393,
        "meta_inclination": 0.0119,
        "meta_ra_of_asc_node": 291.7502,
        "meta_arg_of_pericenter": 313.3264,
        "meta_mean_anomaly": 271.0959,
        "meta_ephemeris_type": 0,
        "meta_classification_type": "U",
        "meta_norad_cat_id": 42950,
        "meta_element_set_no": 999,
        "meta_rev_at_epoch": 3009,
        "meta_bstar": 0,
        "meta_mean_motion_dot": -1.2e-06,
        "meta_mean_motion_ddot": 0,
        "tle_line1": "1 42950U 17059A   25336.28547308 -.00000120  00000+0  00000+0 0  9990",
        "tle_line2": "2 42950   0.0119 291.7502 0003393 313.3264 271.0959  1.00270981 30092"
      },
      "geometry": {
        "type": "Point",
        "coordinates": [
          -12.10599978829552,
          0.025027996395419652
        ]
      }
    },
    {
      "type": "Feature",
      "properties": {
        "norad_id": 43632,
        "name": "AZERSPACE 2 (IS-38)",
        "group": "intelsat",
        "lat": 0.02342032388527806,
        "lon": 50.96693922722046,
        "alt_km": 35792.80525115274,
        "timestamp": "2025-12-02T19:35:50.229706+00:00",
        "meta_object_name": "AZERSPACE 2 (IS-38)",
        "meta_object_id": "2018-074A",
        "meta_epoch": "2025-12-02T03:43:33.564576",
        "meta_mean_motion": 1.00270954,
        "meta_eccentricity": 0.00016795,
        "meta_inclination": 0.003,
        "meta_ra_of_asc_node": 345.5003,
        "meta_arg_of_pericenter": 267.9964,
        "meta_mean_anomaly": 278.7706,
        "meta_ephemeris_type": 0,
        "meta_classification_type": "U",
        "meta_norad_cat_id": 43632,
        "meta_element_set_no": 999,
        "meta_rev_at_epoch": 2647,
        "meta_bstar": 0,
        "meta_mean_motion_dot": 1.57e-06,
        "meta_mean_motion_ddot": 0,
        "tle_line1": "1 43632U 18074A   25336.15524959  .00000157  00000+0  00000+0 0  9998",
        "tle_line2": "2 43632   0.0030 345.5003 0001679 267.9964 278.7706  1.00270954 26473"
      },
      "geometry": {
        "type": "Point",
        "coordinates": [
          50.96693922722046,
          0.02342032388527806
        ]
      }
    },
    {
      "type": "Feature",
      "properties": {
        "norad_id": 43633,
        "name": "HORIZONS-3E",
        "group": "intelsat",
        "lat": -0.023764896164317817,
        "lon": 174.86168098863044,
        "alt_km": 35788.843816210174,
        "timestamp": "2025-12-02T19:35:50.229718+00:00",
        "meta_object_name": "HORIZONS-3E",
        "meta_object_id": "2018-074B",
        "meta_epoch": "2025-12-02T09:32:38.561856",
        "meta_mean_motion": 1.00268601,
        "meta_eccentricity": 0.0001081,
        "meta_inclination": 0.0303,
        "meta_ra_of_asc_node": 208.778,
        "meta_arg_of_pericenter": 80.6678,
        "meta_mean_anomaly": 94.2479,
        "meta_ephemeris_type": 0,
        "meta_classification_type": "U",
        "meta_norad_cat_id": 43633,
        "meta_element_set_no": 999,
        "meta_rev_at_epoch": 2636,
        "meta_bstar": 0,
        "meta_mean_motion_dot": -1e-07,
        "meta_mean_motion_ddot": 0,
        "tle_line1": "1 43633U 18074B   25336.39766854 -.00000010  00000+0  00000+0 0  9996",
        "tle_line2": "2 43633   0.0303 208.7780 0001081  80.6678  94.2479  1.00268601 26360"
      },
      "geometry": {
        "type": "Point",
        "coordinates": [
          174.86168098863044,
          -0.023764896164317817
        ]
      }
    }
  ]
}